[{"OBJECT_NAME":"STARLINK-5136","OBJECT_ID":"2023-061AS","EPOCH":"2026-03-09T07:56:02.917248","MEAN_MOTION":15.02517705,"ECCENTRICITY":0.00015392,"INCLINATION":43.0073,"RA_OF_ASC_NODE":186.1584,"ARG_OF_PERICENTER":277.0903,"MEAN_ANOMALY":82.9765,"EPHEMERIS_TYPE":0,"CLASSIFICATION_TYPE":"U","NORAD_CAT_ID":56414,"ELEMENT_SET_NO":999,"REV_AT_EPOCH":15685,"BSTAR":-0.00035319091,"MEAN_MOTION_DOT":-4.969e-5,"MEAN_MOTION_DDOT":0},{"OBJECT_NAME":"SL-8 DEB","OBJECT_ID":"1977-119E","EPOCH":"2026-03-08T21:50:26.826144","MEAN_MOTION":15.02521055,"ECCENTRICITY":0.00060399,"INCLINATION":74.0225,"RA_OF_ASC_NODE":39.6743,"ARG_OF_PERICENTER":252.2066,"MEAN_ANOMALY":138.7099,"EPHEMERIS_TYPE":0,"CLASSIFICATION_TYPE":"U","NORAD_CAT_ID":18512,"ELEMENT_SET_NO":999,"REV_AT_EPOCH":19339,"BSTAR":0.0013899008,"MEAN_MOTION_DOT":0.00018486,"MEAN_MOTION_DDOT":0}]
